GPS BIIA-23 (PRN 18)    
1 22877U 93068A   19110.25814083 -.00000052  00000-0  00000+0 0  9992
2 22877  54.6464  70.9214 0149912  79.0568 283.7823  2.00559167186712
GPS BIIR-2  (PRN 13)    
1 24876U 97035A   19110.15045266  .00000011  00000-0  00000+0 0  9993
2 24876  55.4614 200.7381 0033622  74.9293 285.4826  2.00564658159304
GPS BIIR-3  (PRN 11)    
1 25933U 99055A   19110.49601431 -.00000087  00000-0  00000+0 0  9995
2 25933  52.0917  48.3313 0163548 107.7686  68.8807  2.00560213143129
GPS BIIR-4  (PRN 20)    
1 26360U 00025A   19110.66674118  .00000024  00000-0  00000+0 0  9990
2 26360  53.3127 126.8355 0042013 136.2685 210.2342  2.00562000138822
GPS BIIR-5  (PRN 28)    
1 26407U 00040A   19110.67218288 -.00000061  00000-0  00000+0 0  9994
2 26407  56.2967 318.8457 0193056 275.8928  48.4596  2.00560614137503
GPS BIIR-6  (PRN 14)    
1 26605U 00071A   19110.34803920  .00000013  00000-0  00000+0 0  9991
2 26605  55.0355 198.2011 0106907 249.0787 112.9606  2.00561340135090
GPS BIIR-8  (PRN 16)    
1 27663U 03005A   19110.29703058 -.00000059  00000-0  00000+0 0  9992
2 27663  56.3577 318.6322 0106935  31.4194 140.8298  2.00577263118857
GPS BIIR-9  (PRN 21)    
1 27704U 03010A   19110.35845060 -.00000054  00000-0  00000+0 0  9996
2 27704  54.3210  70.4048 0249356 276.7367 266.3062  2.00553866117657
GPS BIIR-10 (PRN 22)    
1 28129U 03058A   19110.34014532  .00000030  00000-0  00000+0 0  9994
2 28129  53.1245 129.6446 0074655 281.3830  77.8277  2.00545397112364
GPS BIIR-11 (PRN 19)    
1 28190U 04009A   19110.25792177 -.00000096  00000-0  00000+0 0  9990
2 28190  56.2580  19.4165 0093157  78.8054 219.7198  2.00568889110534
GPS BIIR-12 (PRN 23)    
1 28361U 04023A   19109.99754998  .00000017  00000-0  00000+0 0  9996
2 28361  54.0480 192.6426 0132732 230.4516 153.0626  2.00571559108615
GPS BIIR-13 (PRN 02)    
1 28474U 04045A   19110.62556332 -.00000054  00000-0  00000+0 0  9991
2 28474  54.6803  70.1241 0191541 259.9229 219.6956  2.00561371105983
GPS BIIRM-1 (PRN 17)    
1 28874U 05038A   19108.60936017 -.00000094  00000-0  00000+0 0  9999
2 28874  56.3835  16.8267 0131033 262.0575 307.7082  2.00557668 99351
GPS BIIRM-2 (PRN 31)    
1 29486U 06042A   19110.47979971 -.00000028  00000-0  00000+0 0  9996
2 29486  55.0259 255.3509 0092183 358.7011  42.4848  2.00572384 92107
GPS BIIRM-3 (PRN 12)    
1 29601U 06052A   19109.87037943 -.00000055  00000-0  00000+0 0  9992
2 29601  56.3376 317.5654 0074315  60.2277 300.5359  2.00565337 91001
GPS BIIRM-4 (PRN 15)    
1 32260U 07047A   19110.18137943  .00000019  00000-0  00000+0 0  9998
2 32260  53.1710 188.3771 0111075  43.3357 317.5955  2.00563325 84381
GPS BIIRM-5 (PRN 29)    
1 32384U 07062A   19109.38719260 -.00000095  00000-0  00000+0 0  9995
2 32384  56.4665  17.4311 0007182  92.7418 191.1627  2.00553045 83103
GPS BIIRM-6 (PRN 07)    
1 32711U 08012A   19109.58848810 -.00000033  00000-0  00000+0 0  9993
2 32711  54.7651 254.5904 0126592 219.3432 139.6851  2.00572558 81299
GPS BIIRM-8 (PRN 05)    
1 35752U 09043A   19110.54771556  .00000032  00000-0  00000+0 0  9994
2 35752  54.4093 132.2357 0054383  38.4417 318.7867  2.00563802 70892
GPS BIIF-1  (PRN 25)    
1 36585U 10022A   19109.38698326 -.00000051  00000-0  00000+0 0  9993
2 36585  55.6188 313.9262 0082434  49.7031 292.5791  2.00557650 65122
GPS BIIF-2  (PRN 01)    
1 37753U 11036A   19110.53818324 -.00000045  00000-0  00000+0 0  9991
2 37753  55.8776  74.0219 0085408  38.3911 141.5019  2.00565908 56825
GPS BIIF-3  (PRN 24)    
1 38833U 12053A   19110.27519167 -.00000029  00000-0  00000+0 0  9997
2 38833  53.7991 250.8206 0081507  33.4416 327.0254  2.00557682 47881
GPS BIIF-4  (PRN 27)    
1 39166U 13023A   19109.13881654 -.00000094  00000-0  00000+0 0  9993
2 39166  56.0678  13.6012 0069086  25.0522 335.3064  2.00567921 43404
GPS BIIF-5  (PRN 30)    
1 39533U 14008A   19110.13069440 -.00000032  00000-0  00000+0 0  9990
2 39533  53.9323 256.2149 0039398 191.5460 168.3180  2.00571667 37783
GPS BIIF-6  (PRN 06)    
1 39741U 14026A   19109.91843140 -.00000045  00000-0  00000+0 0  9996
2 39741  55.8575  73.5718 0018180 293.0399  66.7360  2.00576313 36065
GPS BIIF-7  (PRN 09)    
1 40105U 14045A   19108.01377264  .00000007  00000-0  00000+0 0  9999
2 40105  54.5745 192.9942 0010796 102.6826 257.4815  2.00560553 34472
GPS BIIF-8  (PRN 03)    
1 40294U 14068A   19109.37291610  .00000050  00000-0  00000+0 0  9991
2 40294  55.1607 133.7911 0018755  26.3289 333.8286  2.00579214 32723
GPS BIIF-9  (PRN 26)    
1 40534U 15013A   19110.01797837 -.00000057  00000-0  00000+0 0  9992
2 40534  54.5481 312.3035 0037062   5.8165 354.2416  2.00573345 29808
GPS BIIF-10  (PRN 08)   
1 40730U 15033A   19110.17469969 -.00000097  00000-0  00000+0 0  9995
2 40730  55.5935  12.9262 0044679 342.0842  17.7875  2.00557767 27567
GPS BIIF-11  (PRN 10)   
1 41019U 15062A   19109.22738937  .00000051  00000-0  00000+0 0  9995
2 41019  55.1624 133.6108 0045945 207.8246 151.9909  2.00564646 25361
GPS BIIF-12  (PRN 32)   
1 41328U 16007A   19109.82293032  .00000017  00000-0  00000+0 0  9998
2 41328  54.8193 193.2959 0030638 218.4395 141.3948  2.00574277 23436
